NORAD_CAT_ID,OBJECT_NAME,OBJECT_TYPE,EPOCH,MEAN_MOTION,ECCENTRICITY,INCLINATION,RA_OF_ASC_NODE,ARG_OF_PERICENTER,MEAN_ANOMALY,BSTAR,MEAN_MOTION_DOT,MEAN_MOTION_DDOT,TLE_LINE0,TLE_LINE1,TLE_LINE2,SEMIMAJOR_AXIS,PERIOD,APOGEE,PERIGEE,DECAYED
51990.0,STARLINK-3657,PAYLOAD,2023-09-24 12:34:50,15.08845268,0.0001394,53.217,86.6515,90.5241,269.5911,-8.9459e-06,-4.3e-06,0.0,0 STARLINK-3657,1 51990U 22025AL  23267.52419289 -.00000430  00000-0 -89459-5 0  9994,2 51990  53.2170  86.6515 0001394  90.5241 269.5911 15.08845268 85893,6917.864,95.437,540.694,538.765,0.0
51990.0,STARLINK-3657,PAYLOAD,2023-09-24 18:56:22,15.08849371,0.0001388,53.2173,85.4619,91.5336,268.5815,-7.7842e-06,-4.12e-06,0.0,0 STARLINK-3657,1 51990U 22025AL  23267.78915077 -.00000412  00000-0 -77842-5 0  9991,2 51990  53.2173  85.4619 0001388  91.5336 268.5815 15.08849371 85933,6917.852,95.437,540.677,538.757,0.0
51990.0,STARLINK-3657,PAYLOAD,2023-09-25 12:25:37,15.08837414,0.0001504,53.2185,82.1911,95.229,264.8874,-2.5759e-05,-6.98e-06,0.0,0 STARLINK-3657,1 51990U 22025AL  23268.51779567 -.00000698  00000-0 -25759-4 0  9990,2 51990  53.2185  82.1911 0001504  95.2290 264.8874 15.08837414 86047,6917.888,95.438,540.794,538.713,0.0
51990.0,STARLINK-3657,PAYLOAD,2023-09-25 18:47:09,15.08840173,0.000131,53.2174,81.0019,92.9629,267.1513,3.0859e-05,2.03e-06,0.0,0 STARLINK-3657,1 51990U 22025AL  23268.78275437  .00000203  00000-0  30859-4 0  9993,2 51990  53.2174  81.0019 0001310  92.9629 267.1513 15.08840173 87185,6917.88,95.438,540.651,538.839,0.0
51990.0,STARLINK-3657,PAYLOAD,2023-09-25 20:22:33,15.08841853,0.0001324,53.2176,80.7043,91.3932,268.7212,5.3919e-05,5.7e-06,0.0,0 STARLINK-3657,1 51990U 22025AL  23268.84899364  .00000570  00000-0  53919-4 0  9990,2 51990  53.2176  80.7043 0001324  91.3932 268.7212 15.08841853 86093,6917.875,95.437,540.656,538.824,0.0
51990.0,STARLINK-3657,PAYLOAD,2023-09-26 17:02:34,15.08835331,0.0001258,53.217,76.8368,88.7896,271.3241,-1.2268e-05,-4.83e-06,0.0,0 STARLINK-3657,1 51990U 22025AL  23269.71011925 -.00000483  00000-0 -12268-4 0  9993,2 51990  53.2170  76.8368 0001258  88.7896 271.3241 15.08835331 87321,6917.895,95.438,540.63,538.889,0.0
51990.0,STARLINK-3657,PAYLOAD,2023-09-26 18:37:57,15.08838361,0.0001273,53.2172,76.5396,88.4055,271.7083,3.5208e-05,2.72e-06,0.0,0 STARLINK-3657,1 51990U 22025AL  23269.77635793  .00000272  00000-0  35208-4 0  9997,2 51990  53.2172  76.5396 0001273  88.4055 271.7083 15.08838361 86235,6917.885,95.438,540.631,538.87,0.0
51990.0,STARLINK-3657,PAYLOAD,2023-09-27 10:31:49,15.08834683,0.0001308,53.2175,73.5665,79.4661,280.6479,0.00012767,1.744e-05,0.0,0 STARLINK-3657,1 51990U 22025AL  23270.43876206  .00001744  00000-0  12767-3 0  9997,2 51990  53.2175  73.5665 0001308  79.4661 280.6479 15.08834683 86338,6917.897,95.438,540.667,538.857,0.0
51990.0,STARLINK-3657,PAYLOAD,2023-09-27 18:28:44,15.08841982,0.0001305,53.2178,72.0794,73.2171,286.8964,0.00015037,2.106e-05,0.0,0 STARLINK-3657,1 51990U 22025AL  23270.76995935  .00002106  00000-0  15037-3 0  9990,2 51990  53.2178  72.0794 0001305  73.2171 286.8964 15.08841982 87487,6917.874,95.437,540.642,538.837,0.0
51990.0,STARLINK-3657,PAYLOAD,2023-09-28 15:08:45,15.08842455,0.0001363,53.2184,68.2149,77.626,282.4885,0.000103,1.352e-05,0.0,0 STARLINK-3657,1 51990U 22025AL  23271.63108113  .00001352  00000-0  10300-3 0  9991,2 51990  53.2184  68.2149 0001363  77.6260 282.4885 15.08842455 86519,6917.873,95.437,540.681,538.795,0.0
51990.0,STARLINK-3657,PAYLOAD,2023-09-28 18:19:31,15.08839781,0.0001407,53.2187,67.6203,79.7463,280.3687,0.00018962,2.731e-05,0.0,0 STARLINK-3657,1 51990U 22025AL  23271.76356069  .00002731  00000-0  18962-3 0  9994,2 51990  53.2187  67.6203 0001407  79.7463 280.3687 15.08839781 86530,6917.881,95.438,540.719,538.773,0.0
51990.0,STARLINK-3657,PAYLOAD,2023-09-29 14:59:32,15.08840763,0.0001382,53.2181,63.7546,74.3241,285.7904,6.5708e-05,7.58e-06,0.0,0 STARLINK-3657,1 51990U 22025AL  23272.62468297  .00000758  00000-0  65708-4 0  9995,2 51990  53.2181  63.7546 0001382  74.3241 285.7904 15.08840763 86665,6917.878,95.438,540.699,538.787,0.0
51990.0,STARLINK-3657,PAYLOAD,2023-09-30 16:25:42,15.0884469,0.0001266,53.218,58.9948,87.8236,272.2901,5.2035e-05,5.4e-06,0.0,0 STARLINK-3657,1 51990U 22025AL  23273.68451914  .00000540  00000-0  52035-4 0  9998,2 51990  53.2180  58.9948 0001266  87.8236 272.2901 15.08844690 87921,6917.866,95.437,540.607,538.855,0.0
51990.0,STARLINK-3657,PAYLOAD,2023-10-01 13:05:43,15.08845004,0.0001443,53.2187,55.1252,101.9328,258.1826,3.0575e-05,1.99e-06,0.0,0 STARLINK-3657,1 51990U 22025AL  23274.54563894  .00000199  00000-0  30575-4 0  9990,2 51990  53.2187  55.1252 0001443 101.9328 258.1826 15.08845004 86953,6917.865,95.437,540.728,538.732,0.0
51990.0,STARLINK-3657,PAYLOAD,2023-10-01 19:27:15,15.08851358,0.0001386,53.2183,53.9387,89.7383,270.3768,0.0001287,1.762e-05,0.0,0 STARLINK-3657,1 51990U 22025AL  23274.81059226  .00001762  00000-0  12870-3 0  9993,2 51990  53.2183  53.9387 0001386  89.7383 270.3768 15.08851358 86998,6917.846,95.437,540.669,538.752,0.0
51990.0,STARLINK-3657,PAYLOAD,2023-10-02 08:10:21,15.08836303,0.0001509,53.2186,51.5579,100.4387,259.6775,5.2063e-06,-2.05e-06,0.0,0 STARLINK-3657,1 51990U 22025AL  23275.34052594 -.00000205  00000-0  52063-5 0  9995,2 51990  53.2186  51.5579 0001509 100.4387 259.6775 15.08836303 88173,6917.892,95.438,540.801,538.713,0.0
51990.0,STARLINK-3657,PAYLOAD,2023-10-02 16:07:16,15.08842101,0.0001397,53.2187,50.0735,92.4256,267.6896,1.9751e-05,2.6e-07,0.0,0 STARLINK-3657,1 51990U 22025AL  23275.67172162  .00000026  00000-0  19751-4 0  9991,2 51990  53.2187  50.0735 0001397  92.4256 267.6896 15.08842101 87122,6917.874,95.437,540.705,538.773,0.0
51990.0,STARLINK-3657,PAYLOAD,2023-10-03 14:22:40,15.0884328,0.0001368,53.2193,45.9124,98.0672,262.0476,8.8469e-06,-1.47e-06,0.0,0 STARLINK-3657,1 51990U 22025AL  23276.59908397 -.00000147  00000-0  88469-5 0  9998,2 51990  53.2193  45.9124 0001368  98.0672 262.0476 15.08843280 87263,6917.87,95.437,540.682,538.789,0.0
51990.0,STARLINK-3657,PAYLOAD,2023-10-03 15:58:03,15.08845588,0.0001347,53.219,45.6163,96.6487,263.4659,2.5716e-05,1.21e-06,0.0,0 STARLINK-3657,1 51990U 22025AL  23276.66532163  .00000121  00000-0  25716-4 0  9996,2 51990  53.2190  45.6163 0001347  96.6487 263.4659 15.08845588 87277,6917.863,95.437,540.66,538.796,0.0
51990.0,STARLINK-3657,PAYLOAD,2023-10-04 09:27:18,15.08844169,0.0001463,53.2192,42.3456,87.3851,272.7309,1.4653e-05,-5.5e-07,0.0,0 STARLINK-3657,1 51990U 22025AL  23277.39396482 -.00000055  00000-0  14653-4 0  9994,2 51990  53.2192  42.3456 0001463  87.3851 272.7309 15.08844169 88482,6917.868,95.437,540.745,538.721,0.0
51990.0,STARLINK-3657,PAYLOAD,2023-10-04 14:13:27,15.08858005,0.0001624,53.2194,41.4556,92.3837,267.7341,-3.1349e-05,-7.87e-06,0.0,0 STARLINK-3657,1 51990U 22025AL  23277.59267596 -.00000787  00000-0 -31349-4 0  9993,2 51990  53.2194  41.4556 0001624  92.3837 267.7341 15.08858005 87410,6917.825,95.436,540.814,538.567,0.0
51990.0,STARLINK-3657,PAYLOAD,2023-10-04 15:48:50,15.08844473,0.0001277,53.2195,41.155,70.5509,289.5621,0.00018125,2.598e-05,0.0,0 STARLINK-3657,1 51990U 22025AL  23277.65892102  .00002598  00000-0  18125-3 0  9993,2 51990  53.2195  41.1550 0001277  70.5509 289.5621 15.08844473 87428,6917.867,95.437,540.615,538.848,0.0
51990.0,STARLINK-3657,PAYLOAD,2023-10-05 14:04:14,15.08853918,0.0001442,53.2192,36.9915,72.9988,287.1162,0.0001462,2.04e-05,0.0,0 STARLINK-3657,1 51990U 22025AL  23278.58627462  .00002040  00000-0  14620-3 0  9999,2 51990  53.2192  36.9915 0001442  72.9988 287.1162 15.08853918 87566,6917.838,95.437,540.7,538.705,0.0
51990.0,STARLINK-3657,PAYLOAD,2023-10-05 15:39:36,15.08859488,0.0001461,53.2196,36.6925,74.6208,285.4945,0.00015361,2.159e-05,0.0,0 STARLINK-3657,1 51990U 22025AL  23278.65250986  .00002159  00000-0  15361-3 0  9994,2 51990  53.2196  36.6925 0001461  74.6208 285.4945 15.08859488 88674,6917.821,95.436,540.697,538.675,0.0
51990.0,STARLINK-3657,PAYLOAD,2023-10-06 01:11:56,15.08840133,0.0001403,53.2198,34.9107,85.1594,274.9558,4.7205e-05,4.63e-06,0.0,0 STARLINK-3657,1 51990U 22025AL  23279.04996410  .00000463  00000-0  47205-4 0  9996,2 51990  53.2198  34.9107 0001403  85.1594 274.9558 15.08840133 88737,6917.88,95.438,540.716,538.774,0.0
51990.0,STARLINK-3657,PAYLOAD,2023-10-06 07:33:30,15.08831079,0.0001642,53.22,33.7232,84.7532,275.3647,-0.00013602,-2.452e-05,0.0,0 STARLINK-3657,1 51990U 22025AL  23279.31493746 -.00002452  00000-0 -13602-3 0  9995,2 51990  53.2200  33.7232 0001642  84.7532 275.3647 15.08831079 88776,6917.908,95.438,540.909,538.637,0.0
51990.0,STARLINK-3657,PAYLOAD,2023-10-06 13:55:03,15.0883314,0.0001522,53.2196,32.5334,91.3236,268.793,-0.00012133,-2.218e-05,0.0,0 STARLINK-3657,1 51990U 22025AL  23279.57989591 -.00002218  00000-0 -12133-3 0  9999,2 51990  53.2196  32.5334 0001522  91.3236 268.7930 15.08833140 87717,6917.901,95.438,540.819,538.713,0.0
51990.0,STARLINK-3657,PAYLOAD,2023-10-07 01:02:44,15.08836536,0.000148,53.2202,30.4491,83.3043,276.8118,-2.3305e-05,-6.59e-06,0.0,0 STARLINK-3657,1 51990U 22025AL  23280.04357223 -.00000659  00000-0 -23305-4 0  9995,2 51990  53.2202  30.4491 0001480  83.3043 276.8118 15.08836536 88885,6917.891,95.438,540.78,538.732,0.0
51990.0,STARLINK-3657,PAYLOAD,2023-10-07 10:35:04,15.0882887,0.0001938,53.22,28.6663,87.908,272.2134,-4.3185e-05,-9.75e-06,0.0,0 STARLINK-3657,1 51990U 22025AL  23280.44102201 -.00000975  00000-0 -43185-4 0  9992,2 51990  53.2200  28.6663 0001938  87.9080 272.2134 15.08828870 88949,6917.914,95.438,541.12,538.439,0.0
51990.0,STARLINK-3657,PAYLOAD,2023-10-07 13:45:50,15.08837181,0.0001762,53.2201,28.0696,87.5784,272.5409,-8.7796e-05,-1.685e-05,0.0,0 STARLINK-3657,1 51990U 22025AL  23280.57349847 -.00001685  00000-0 -87796-4 0  9990,2 51990  53.2201  28.0696 0001762  87.5784 272.5409 15.08837181 87865,6917.889,95.438,540.973,538.535,0.0
